{
    "links": {
        "self": "http://www.neowsapp.com/rest/v1/neo/3305000?api_key=iIulBulltgU6a56xZRHN4H3l9WmuAYTsLGpBGhQ2"
    },
    "id": "3305000",
    "neo_reference_id": "3305000",
    "name": "(2005 WE55)",
    "designation": "2005 WE55",
    "nasa_jpl_url": "http://ssd.jpl.nasa.gov/sbdb.cgi?sstr=3305000",
    "absolute_magnitude_h": 21.6,
    "estimated_diameter": {
        "kilometers": {
            "estimated_diameter_min": 0.1272198785,
            "estimated_diameter_max": 0.2844722965
        },
        "meters": {
            "estimated_diameter_min": 127.2198785394,
            "estimated_diameter_max": 284.4722965033
        },
        "miles": {
            "estimated_diameter_min": 0.0790507431,
            "estimated_diameter_max": 0.1767628354
        },
        "feet": {
            "estimated_diameter_min": 417.3880663071,
            "estimated_diameter_max": 933.3080892598
        }
    },
    "is_potentially_hazardous_asteroid": false,
    "close_approach_data": [
        {
            "close_approach_date": "1989-12-20",
            "close_approach_date_full": "1989-Dec-20 23:25",
            "epoch_date_close_approach": 630199500000,
            "relative_velocity": {
                "kilometers_per_second": "18.0745651345",
                "kilometers_per_hour": "65068.4344843609",
                "miles_per_hour": "40430.994749463"
            },
            "miss_distance": {
                "astronomical": "0.4145826987",
                "lunar": "161.2726697943",
                "kilometers": "62020688.664371769",
                "miles": "38537868.9113136522"
            },
            "orbiting_body": "Earth"
        },
        {
            "close_approach_date": "2005-12-15",
            "close_approach_date_full": "2005-Dec-15 20:08",
            "epoch_date_close_approach": 1134677280000,
            "relative_velocity": {
                "kilometers_per_second": "12.1395768238",
                "kilometers_per_hour": "43702.476565635",
                "miles_per_hour": "27155.0193971303"
            },
            "miss_distance": {
                "astronomical": "0.4031208737",
                "lunar": "156.8140198693",
                "kilometers": "60306024.058059019",
                "miles": "37472425.7302077022"
            },
            "orbiting_body": "Earth"
        },
        {
            "close_approach_date": "2006-04-26",
            "close_approach_date_full": "2006-Apr-26 19:16",
            "epoch_date_close_approach": 1146078960000,
            "relative_velocity": {
                "kilometers_per_second": "17.4651141306",
                "kilometers_per_hour": "62874.4108702734",
                "miles_per_hour": "39067.7137988096"
            },
            "miss_distance": {
                "astronomical": "0.4131761395",
                "lunar": "160.7255182655",
                "kilometers": "61810270.404022865",
                "miles": "38407121.067190937"
            },
            "orbiting_body": "Earth"
        },
        {
            "close_approach_date": "2012-12-19",
            "close_approach_date_full": "2012-Dec-19 00:41",
            "epoch_date_close_approach": 1355877660000,
            "relative_velocity": {
                "kilometers_per_second": "20.0072980374",
                "kilometers_per_hour": "72026.2729345867",
                "miles_per_hour": "44754.324979827"
            },
            "miss_distance": {
                "astronomical": "0.4803732064",
                "lunar": "186.8651772896",
                "kilometers": "71862808.482510368",
                "miles": "44653478.5817163584"
            },
            "orbiting_body": "Earth"
        },
        {
            "close_approach_date": "2013-05-05",
            "close_approach_date_full": "2013-May-05 09:53",
            "epoch_date_close_approach": 1367747580000,
            "relative_velocity": {
                "kilometers_per_second": "11.8047738682",
                "kilometers_per_hour": "42497.1859254505",
                "miles_per_hour": "26406.0986657334"
            },
            "miss_distance": {
                "astronomical": "0.4670157468",
                "lunar": "181.6691255052",
                "kilometers": "69864560.977739316",
                "miles": "43411825.1584859208"
            },
            "orbiting_body": "Earth"
        }
    ],
    "orbital_data": {
        "orbit_id": "9",
        "orbit_determination_date": "2017-04-06 09:09:46",
        "first_observation_date": "2005-11-26",
        "last_observation_date": "2005-12-20",
        "data_arc_in_days": 24,
        "observations_used": 20,
        "orbit_uncertainty": "7",
        "minimum_orbit_intersection": ".313269",
        "jupiter_tisserand_invariant": "3.961",
        "epoch_osculation": "2459000.5",
        "eccentricity": ".3977212786950952",
        "semi_major_axis": "1.741723058852378",
        "inclination": "23.5196431060997",
        "ascending_node_longitude": "63.19288621219853",
        "orbital_period": "839.5896557842802",
        "perihelion_distance": "1.049002736752877",
        "perihelion_argument": "87.46012375843466",
        "aphelion_distance": "2.434443380951878",
        "perihelion_time": "2458839.441933955329",
        "mean_anomaly": "69.05862093062618",
        "mean_motion": ".4287808901882142",
        "equinox": "J2000",
        "orbit_class": {
            "orbit_class_type": "AMO",
            "orbit_class_description": "Near-Earth asteroid orbits similar to that of 1221 Amor",
            "orbit_class_range": "1.017 AU < q (perihelion) < 1.3 AU"
        }
    },
    "is_sentry_object": false
}